{
  "type": "FeatureCollection",
  "features": [
    {
      "type": "Feature",
      "properties": {
        "norad_id": 66576,
        "name": "STARLINK-35814",
        "group": "last-30-days",
        "lat": -13.953817354333053,
        "lon": -26.167143413060057,
        "alt_km": 415.9272107912602,
        "timestamp": "2025-12-09T18:55:16.022801+00:00",
        "meta_object_name": "STARLINK-35814",
        "meta_object_id": "2025-268V",
        "meta_epoch": "2025-12-09T14:00:01.999872",
        "meta_mean_motion": 15.50588071,
        "meta_eccentricity": 0.00019883,
        "meta_inclination": 43.0006,
        "meta_ra_of_asc_node": 139.568,
        "meta_arg_of_pericenter": 265.5517,
        "meta_mean_anomaly": 229.2746,
        "meta_ephemeris_type": 0,
        "meta_classification_type": "U",
        "meta_norad_cat_id": 66576,
        "meta_element_set_no": 999,
        "meta_rev_at_epoch": 416,
        "meta_bstar": -0.001118318,
        "meta_mean_motion_dot": -0.00065427,
        "meta_mean_motion_ddot": 0,
        "tle_line1": "1 66576U 25268V   25343.58335648 -.00065427  00000+0 -11183-2 0  9993",
        "tle_line2": "2 66576  43.0006 139.5680 0001988 265.5517 229.2746 15.50588071  4167"
      },
      "geometry": {
        "type": "Point",
        "coordinates": [
          -26.167143413060057,
          -13.953817354333053
        ]
      }
    },
    {
      "type": "Feature",
      "properties": {
        "norad_id": 66577,
        "name": "STARLINK-35815",
        "group": "last-30-days",
        "lat": -15.211497433337776,
        "lon": -24.67151158603144,
        "alt_km": 416.0272150359606,
        "timestamp": "2025-12-09T18:55:16.022811+00:00",
        "meta_object_name": "STARLINK-35815",
        "meta_object_id": "2025-268W",
        "meta_epoch": "2025-12-09T14:00:01.999872",
        "meta_mean_motion": 15.50634582,
        "meta_eccentricity": 0.00019029,
        "meta_inclination": 43.0006,
        "meta_ra_of_asc_node": 139.5629,
        "meta_arg_of_pericenter": 267.7625,
        "meta_mean_anomaly": 228.9617,
        "meta_ephemeris_type": 0,
        "meta_classification_type": "U",
        "meta_norad_cat_id": 66577,
        "meta_element_set_no": 999,
        "meta_rev_at_epoch": 416,
        "meta_bstar": -0.0023514315,
        "meta_mean_motion_dot": -0.00136193,
        "meta_mean_motion_ddot": 0,
        "tle_line1": "1 66577U 25268W   25343.58335648 -.00136193  00000+0 -23514-2 0  9994",
        "tle_line2": "2 66577  43.0006 139.5629 0001902 267.7625 228.9617 15.50634582  4163"
      },
      "geometry": {
        "type": "Point",
        "coordinates": [
          -24.67151158603144,
          -15.211497433337776
        ]
      }
    },
    {
      "type": "Feature",
      "properties": {
        "norad_id": 66578,
        "name": "STARLINK-35743",
        "group": "last-30-days",
        "lat": -16.455871247033368,
        "lon": -23.16181581113619,
        "alt_km": 416.1622595326826,
        "timestamp": "2025-12-09T18:55:16.022823+00:00",
        "meta_object_name": "STARLINK-35743",
        "meta_object_id": "2025-268X",
        "meta_epoch": "2025-12-09T14:00:01.999872",
        "meta_mean_motion": 15.50634502,
        "meta_eccentricity": 0.00018973,
        "meta_inclination": 43.0007,
        "meta_ra_of_asc_node": 139.5579,
        "meta_arg_of_pericenter": 270.358,
        "meta_mean_anomaly": 228.2835,
        "meta_ephemeris_type": 0,
        "meta_classification_type": "U",
        "meta_norad_cat_id": 66578,
        "meta_element_set_no": 999,
        "meta_rev_at_epoch": 416,
        "meta_bstar": -0.0023482361,
        "meta_mean_motion_dot": -0.00136011,
        "meta_mean_motion_ddot": 0,
        "tle_line1": "1 66578U 25268X   25343.58335648 -.00136011  00000+0 -23482-2 0  9998",
        "tle_line2": "2 66578  43.0007 139.5579 0001897 270.3580 228.2835 15.50634502  4169"
      },
      "geometry": {
        "type": "Point",
        "coordinates": [
          -23.16181581113619,
          -16.455871247033368
        ]
      }
    },
    {
      "type": "Feature",
      "properties": {
        "norad_id": 66579,
        "name": "STARLINK-35868",
        "group": "last-30-days",
        "lat": -17.689565317052523,
        "lon": -21.632800878219903,
        "alt_km": 416.1730130659398,
        "timestamp": "2025-12-09T18:55:16.022833+00:00",
        "meta_object_name": "STARLINK-35868",
        "meta_object_id": "2025-268Y",
        "meta_epoch": "2025-12-09T14:00:01.999872",
        "meta_mean_motion": 15.50643198,
        "meta_eccentricity": 0.00020095,
        "meta_inclination": 43.0006,
        "meta_ra_of_asc_node": 139.5522,
        "meta_arg_of_pericenter": 269.4514,
        "meta_mean_anomaly": 231.104,
        "meta_ephemeris_type": 0,
        "meta_classification_type": "U",
        "meta_norad_cat_id": 66579,
        "meta_element_set_no": 999,
        "meta_rev_at_epoch": 416,
        "meta_bstar": -0.0025366379,
        "meta_mean_motion_dot": -0.00146744,
        "meta_mean_motion_ddot": 0,
        "tle_line1": "1 66579U 25268Y   25343.58335648 -.00146744  00000+0 -25366-2 0  9996",
        "tle_line2": "2 66579  43.0006 139.5522 0002009 269.4514 231.1040 15.50643198  4161"
      },
      "geometry": {
        "type": "Point",
        "coordinates": [
          -21.632800878219903,
          -17.689565317052523
        ]
      }
    },
    {
      "type": "Feature",
      "properties": {
        "norad_id": 66580,
        "name": "STARLINK-35872",
        "group": "last-30-days",
        "lat": -18.91503926210473,
        "lon": -20.07601826456601,
        "alt_km": 416.22495927127875,
        "timestamp": "2025-12-09T18:55:16.022845+00:00",
        "meta_object_name": "STARLINK-35872",
        "meta_object_id": "2025-268Z",
        "meta_epoch": "2025-12-09T14:00:01.999872",
        "meta_mean_motion": 15.50651538,
        "meta_eccentricity": 0.00018363,
        "meta_inclination": 43.0004,
        "meta_ra_of_asc_node": 139.5481,
        "meta_arg_of_pericenter": 266.0399,
        "meta_mean_anomaly": 236.4332,
        "meta_ephemeris_type": 0,
        "meta_classification_type": "U",
        "meta_norad_cat_id": 66580,
        "meta_element_set_no": 999,
        "meta_rev_at_epoch": 416,
        "meta_bstar": -0.002809743,
        "meta_mean_motion_dot": -0.00162234,
        "meta_mean_motion_ddot": 0,
        "tle_line1": "1 66580U 25268Z   25343.58335648 -.00162234  00000+0 -28097-2 0  9994",
        "tle_line2": "2 66580  43.0004 139.5481 0001836 266.0399 236.4332 15.50651538  4165"
      },
      "geometry": {
        "type": "Point",
        "coordinates": [
          -20.07601826456601,
          -18.91503926210473
        ]
      }
    },
    {
      "type": "Feature",
      "properties": {
        "norad_id": 66581,
        "name": "STARLINK-35744",
        "group": "last-30-days",
        "lat": -20.119175470803654,
        "lon": -18.508667918800974,
        "alt_km": 416.2808697402925,
        "timestamp": "2025-12-09T18:55:16.022855+00:00",
        "meta_object_name": "STARLINK-35744",
        "meta_object_id": "2025-268AA",
        "meta_epoch": "2025-12-09T14:00:01.999872",
        "meta_mean_motion": 15.50639905,
        "meta_eccentricity": 0.00019098,
        "meta_inclination": 43.0004,
        "meta_ra_of_asc_node": 139.5425,
        "meta_arg_of_pericenter": 266.1761,
        "meta_mean_anomaly": 238.214,
        "meta_ephemeris_type": 0,
        "meta_classification_type": "U",
        "meta_norad_cat_id": 66581,
        "meta_element_set_no": 999,
        "meta_rev_at_epoch": 411,
        "meta_bstar": -0.002453723,
        "meta_mean_motion_dot": -0.00142025,
        "meta_mean_motion_ddot": 0,
        "tle_line1": "1 66581U 25268AA  25343.58335648 -.00142025  00000+0 -24537-2 0  9996",
        "tle_line2": "2 66581  43.0004 139.5425 0001909 266.1761 238.2140 15.50639905  4115"
      },
      "geometry": {
        "type": "Point",
        "coordinates": [
          -18.508667918800974,
          -20.119175470803654
        ]
      }
    },
    {
      "type": "Feature",
      "properties": {
        "norad_id": 66582,
        "name": "STARLINK-35746",
        "group": "last-30-days",
        "lat": -21.31291779765853,
        "lon": -16.911442975597915,
        "alt_km": 416.4044722411809,
        "timestamp": "2025-12-09T18:55:16.022867+00:00",
        "meta_object_name": "STARLINK-35746",
        "meta_object_id": "2025-268AB",
        "meta_epoch": "2025-12-09T14:00:01.999872",
        "meta_mean_motion": 15.50637129,
        "meta_eccentricity": 0.00018905,
        "meta_inclination": 43.0003,
        "meta_ra_of_asc_node": 139.5373,
        "meta_arg_of_pericenter": 268.6047,
        "meta_mean_anomaly": 237.7045,
        "meta_ephemeris_type": 0,
        "meta_classification_type": "U",
        "meta_norad_cat_id": 66582,
        "meta_element_set_no": 999,
        "meta_rev_at_epoch": 416,
        "meta_bstar": -0.0024160713,
        "meta_mean_motion_dot": -0.00139875,
        "meta_mean_motion_ddot": 0,
        "tle_line1": "1 66582U 25268AB  25343.58335648 -.00139875  00000+0 -24161-2 0  9999",
        "tle_line2": "2 66582  43.0003 139.5373 0001890 268.6047 237.7045 15.50637129  4169"
      },
      "geometry": {
        "type": "Point",
        "coordinates": [
          -16.911442975597915,
          -21.31291779765853
        ]
      }
    }
  ]
}